[{"OBJECT_NAME":"STARLINK-5467","OBJECT_ID":"2023-021AJ","EPOCH":"2026-03-09T15:44:49.737408","MEAN_MOTION":14.98299745,"ECCENTRICITY":0.00034055,"INCLINATION":70.0014,"RA_OF_ASC_NODE":164.3842,"ARG_OF_PERICENTER":269.2197,"MEAN_ANOMALY":90.8572,"EPHEMERIS_TYPE":0,"CLASSIFICATION_TYPE":"U","NORAD_CAT_ID":55660,"ELEMENT_SET_NO":999,"REV_AT_EPOCH":16928,"BSTAR":0.00024740261,"MEAN_MOTION_DOT":2.858e-5,"MEAN_MOTION_DDOT":0},{"OBJECT_NAME":"LEMUR-2-DELOITTE-1","OBJECT_ID":"2025-052BB","EPOCH":"2026-03-09T22:32:58.708896","MEAN_MOTION":14.9679712,"ECCENTRICITY":0.00030112,"INCLINATION":97.7035,"RA_OF_ASC_NODE":323.209,"ARG_OF_PERICENTER":78.3841,"MEAN_ANOMALY":281.7719,"EPHEMERIS_TYPE":0,"CLASSIFICATION_TYPE":"U","NORAD_CAT_ID":63259,"ELEMENT_SET_NO":999,"REV_AT_EPOCH":5384,"BSTAR":0.00044206323,"MEAN_MOTION_DOT":5.004e-5,"MEAN_MOTION_DDOT":0}]
